GUOWANG TEST OBJECT A   
1 69320U 26120A   26157.09855477  .00012167  00000+0  32226-3 0  9991
2 69320  54.9973  77.6770 0009486 290.5105  69.4905 15.38777591   985
GUOWANG TEST OBJECT B   
1 69321U 26120B   26155.27875762  .00027005  00000+0  69390-3 0  9998
2 69321  55.0006  85.8667 0009100 296.4175  63.5919 15.39121370   705
GUOWANG TEST OBJECT C   
1 69322U 26120C   26157.09588207  .00022985  00000+0  58529-3 0  9990
2 69322  54.9978  77.6685 0009487 304.4356  55.5776 15.39487703   987
GUOWANG TEST OBJECT D   
1 69323U 26120D   26155.66644343  .00032137  00000+0  80800-3 0  9993
2 69323  55.0029  84.1123 0008002 301.7889  58.2360 15.39704502   764
QIANFAN-163             
1 69325U 26121A   26157.11749043  .00000028  00000+0  20706-4 0  9995
2 69325  89.0163 301.6355 0019043 219.7126 140.2637 13.60350819   652
QIANFAN-164             
1 69326U 26121B   26157.11695873  .00000130  00000+0  15729-3 0  9999
2 69326  89.0160 301.6350 0018396 221.2888 138.6878 13.60504054   658
SZ-22 MODULE            
1 69328U 25272C   26155.94793699  .00022470  00000+0  27599-3 0  9990
2 69328  41.4810  36.4880 0008356 350.2706   9.7969 15.59719201  1418
